[
  {
    "OBJECT_NAME": "STARLINK-1117",
    "NORAD_CAT_ID": "44117",
    "TLE_LINE1": "1 44117U 19074A   26040.52919316  .00001234  00000-0  12345-3 0  9999",
    "TLE_LINE2": "2 44117  52.9976  25.2516 0002110 185.2739  76.4422 15.10721995123456"
  },
  {
    "OBJECT_NAME": "STARLINK-1118",
    "NORAD_CAT_ID": "44118",
    "TLE_LINE1": "1 44118U 19074A   26040.48552418  .00001234  00000-0  12345-3 0  9999",
    "TLE_LINE2": "2 44118  53.4836 141.2833 0002857 113.1508 176.4916 15.06385021123456"
  },
  {
    "OBJECT_NAME": "STARLINK-1119",
    "NORAD_CAT_ID": "44119",
    "TLE_LINE1": "1 44119U 19074A   26040.40367435  .00001234  00000-0  12345-3 0  9999",
    "TLE_LINE2": "2 44119  52.6103 155.8036 0001392 357.0861 283.0983 15.04657521123456"
  },
  {
    "OBJECT_NAME": "STARLINK-1120",
    "NORAD_CAT_ID": "44120",
    "TLE_LINE1": "1 44120U 19074A   26040.48122012  .00001234  00000-0  12345-3 0  9999",
    "TLE_LINE2": "2 44120  52.8419 172.0233 0002894  95.8595 264.2200 15.07046218123456"
  },
  {
    "OBJECT_NAME": "STARLINK-1121",
    "NORAD_CAT_ID": "44121",
    "TLE_LINE1": "1 44121U 19074A   26040.59074522  .00001234  00000-0  12345-3 0  9999",
    "TLE_LINE2": "2 44121  52.9131  79.1277 0001836 353.1349 338.8968 15.05378026123456"
  },
  {
    "OBJECT_NAME": "STARLINK-1122",
    "NORAD_CAT_ID": "44122",
    "TLE_LINE1": "1 44122U 19074A   26040.51125038  .00001234  00000-0  12345-3 0  9999",
    "TLE_LINE2": "2 44122  53.4955  53.4562 0001628 278.5383 339.2651 15.03493305123456"
  },
  {
    "OBJECT_NAME": "STARLINK-1123",
    "NORAD_CAT_ID": "44123",
    "TLE_LINE1": "1 44123U 19074A   26040.54907391  .00001234  00000-0  12345-3 0  9999",
    "TLE_LINE2": "2 44123  53.2711 223.1000 0002620 132.4675 112.7957 15.02057162123456"
  },
  {
    "OBJECT_NAME": "STARLINK-1124",
    "NORAD_CAT_ID": "44124",
    "TLE_LINE1": "1 44124U 19074A   26040.41267816  .00001234  00000-0  12345-3 0  9999",
    "TLE_LINE2": "2 44124  53.3024 247.4522 0001974 266.0943 279.3533 15.05380067123456"
  },
  {
    "OBJECT_NAME": "STARLINK-1125",
    "NORAD_CAT_ID": "44125",
    "TLE_LINE1": "1 44125U 19074A   26040.54313878  .00001234  00000-0  12345-3 0  9999",
    "TLE_LINE2": "2 44125  53.1709 300.7293 0001890  88.3694 301.8939 15.10965332123456"
  },
  {
    "OBJECT_NAME": "STARLINK-1126",
    "NORAD_CAT_ID": "44126",
    "TLE_LINE1": "1 44126U 19074A   26040.57587727  .00001234  00000-0  12345-3 0  9999",
    "TLE_LINE2": "2 44126  53.1610   8.4735 0001648  90.6175 345.9333 15.08117443123456"
  },
  {
    "OBJECT_NAME": "STARLINK-1127",
    "NORAD_CAT_ID": "44127",
    "TLE_LINE1": "1 44127U 19074A   26040.45840122  .00001234  00000-0  12345-3 0  9999",
    "TLE_LINE2": "2 44127  52.8324 279.6111 0001231 115.1102 269.5552 15.06345376123456"
  },
  {
    "OBJECT_NAME": "STARLINK-1128",
    "NORAD_CAT_ID": "44128",
    "TLE_LINE1": "1 44128U 19074A   26040.50623042  .00001234  00000-0  12345-3 0  9999",
    "TLE_LINE2": "2 44128  52.9515 351.7495 0002204 283.2903 206.4014 15.08992864123456"
  },
  {
    "OBJECT_NAME": "STARLINK-1129",
    "NORAD_CAT_ID": "44129",
    "TLE_LINE1": "1 44129U 19074A   26040.49411129  .00001234  00000-0  12345-3 0  9999",
    "TLE_LINE2": "2 44129  53.4830 225.6853 0001655 135.0443  64.5457 15.02945269123456"
  },
  {
    "OBJECT_NAME": "STARLINK-1130",
    "NORAD_CAT_ID": "44130",
    "TLE_LINE1": "1 44130U 19074A   26040.54802819  .00001234  00000-0  12345-3 0  9999",
    "TLE_LINE2": "2 44130  53.3518 154.3654 0001610  37.6366 134.2404 15.10507052123456"
  },
  {
    "OBJECT_NAME": "STARLINK-1131",
    "NORAD_CAT_ID": "44131",
    "TLE_LINE1": "1 44131U 19074A   26040.42992108  .00001234  00000-0  12345-3 0  9999",
    "TLE_LINE2": "2 44131  52.7725 210.0230 0001727  78.4338 340.3617 15.02404344123456"
  },
  {
    "OBJECT_NAME": "STARLINK-1132",
    "NORAD_CAT_ID": "44132",
    "TLE_LINE1": "1 44132U 19074A   26040.58774520  .00001234  00000-0  12345-3 0  9999",
    "TLE_LINE2": "2 44132  53.0096 218.6031 0001969  58.3464   8.5396 15.04068344123456"
  },
  {
    "OBJECT_NAME": "STARLINK-1133",
    "NORAD_CAT_ID": "44133",
    "TLE_LINE1": "1 44133U 19074A   26040.47732287  .00001234  00000-0  12345-3 0  9999",
    "TLE_LINE2": "2 44133  52.9449 251.4287 0002392 325.0422 306.3496 15.07807620123456"
  },
  {
    "OBJECT_NAME": "STARLINK-1134",
    "NORAD_CAT_ID": "44134",
    "TLE_LINE1": "1 44134U 19074A   26040.41178423  .00001234  00000-0  12345-3 0  9999",
    "TLE_LINE2": "2 44134  53.2136 305.6542 0002750  41.2041 230.1928 15.01996226123456"
  },
  {
    "OBJECT_NAME": "STARLINK-1135",
    "NORAD_CAT_ID": "44135",
    "TLE_LINE1": "1 44135U 19074A   26040.56788476  .00001234  00000-0  12345-3 0  9999",
    "TLE_LINE2": "2 44135  53.2838 339.3996 0002976  74.7125 260.5963 15.01428653123456"
  },
  {
    "OBJECT_NAME": "STARLINK-1136",
    "NORAD_CAT_ID": "44136",
    "TLE_LINE1": "1 44136U 19074A   26040.47257896  .00001234  00000-0  12345-3 0  9999",
    "TLE_LINE2": "2 44136  52.8132 116.5515 0002920  65.2792 119.3946 15.04292973123456"
  },
  {
    "OBJECT_NAME": "STARLINK-1137",
    "NORAD_CAT_ID": "44137",
    "TLE_LINE1": "1 44137U 19074A   26040.58199100  .00001234  00000-0  12345-3 0  9999",
    "TLE_LINE2": "2 44137  52.5258 186.2230 0002911 156.6409  16.2368 15.08289282123456"
  },
  {
    "OBJECT_NAME": "STARLINK-1138",
    "NORAD_CAT_ID": "44138",
    "TLE_LINE1": "1 44138U 19074A   26040.52459012  .00001234  00000-0  12345-3 0  9999",
    "TLE_LINE2": "2 44138  53.3761 143.5173 0002868 256.4024 330.3790 15.08035677123456"
  },
  {
    "OBJECT_NAME": "STARLINK-1139",
    "NORAD_CAT_ID": "44139",
    "TLE_LINE1": "1 44139U 19074A   26040.50113439  .00001234  00000-0  12345-3 0  9999",
    "TLE_LINE2": "2 44139  52.5618 203.0417 0002586 188.7493 124.8940 15.03984349123456"
  },
  {
    "OBJECT_NAME": "STARLINK-1140",
    "NORAD_CAT_ID": "44140",
    "TLE_LINE1": "1 44140U 19074A   26040.55429631  .00001234  00000-0  12345-3 0  9999",
    "TLE_LINE2": "2 44140  53.0099 130.0657 0001074 203.9833 317.5742 15.09956918123456"
  },
  {
    "OBJECT_NAME": "STARLINK-1141",
    "NORAD_CAT_ID": "44141",
    "TLE_LINE1": "1 44141U 19074A   26040.54780987  .00001234  00000-0  12345-3 0  9999",
    "TLE_LINE2": "2 44141  52.8773 293.0185 0002466 295.7260  91.0767 15.10078184123456"
  },
  {
    "OBJECT_NAME": "STARLINK-1142",
    "NORAD_CAT_ID": "44142",
    "TLE_LINE1": "1 44142U 19074A   26040.46249487  .00001234  00000-0  12345-3 0  9999",
    "TLE_LINE2": "2 44142  53.4076 352.5659 0002351 169.8650   7.8858 15.01419716123456"
  },
  {
    "OBJECT_NAME": "STARLINK-1143",
    "NORAD_CAT_ID": "44143",
    "TLE_LINE1": "1 44143U 19074A   26040.58251367  .00001234  00000-0  12345-3 0  9999",
    "TLE_LINE2": "2 44143  53.1357 219.8011 0002882 164.6879  93.8960 15.03491249123456"
  },
  {
    "OBJECT_NAME": "STARLINK-1144",
    "NORAD_CAT_ID": "44144",
    "TLE_LINE1": "1 44144U 19074A   26040.54243878  .00001234  00000-0  12345-3 0  9999",
    "TLE_LINE2": "2 44144  52.6935 332.5924 0002023 187.5348 116.4461 15.08901041123456"
  },
  {
    "OBJECT_NAME": "STARLINK-1145",
    "NORAD_CAT_ID": "44145",
    "TLE_LINE1": "1 44145U 19074A   26040.40878425  .00001234  00000-0  12345-3 0  9999",
    "TLE_LINE2": "2 44145  52.7469 287.6404 0001620  24.7633 210.4598 15.03860903123456"
  },
  {
    "OBJECT_NAME": "STARLINK-1146",
    "NORAD_CAT_ID": "44146",
    "TLE_LINE1": "1 44146U 19074A   26040.43169184  .00001234  00000-0  12345-3 0  9999",
    "TLE_LINE2": "2 44146  52.7754 271.6334 0002741 269.7467 299.9398 15.04940611123456"
  },
  {
    "OBJECT_NAME": "STARLINK-1147",
    "NORAD_CAT_ID": "44147",
    "TLE_LINE1": "1 44147U 19074A   26040.52957484  .00001234  00000-0  12345-3 0  9999",
    "TLE_LINE2": "2 44147  53.1357 270.5490 0002846  55.2744  25.4992 15.06076654123456"
  },
  {
    "OBJECT_NAME": "STARLINK-1148",
    "NORAD_CAT_ID": "44148",
    "TLE_LINE1": "1 44148U 19074A   26040.54815669  .00001234  00000-0  12345-3 0  9999",
    "TLE_LINE2": "2 44148  53.1274  60.3452 0002334   8.9638   0.3994 15.05792994123456"
  },
  {
    "OBJECT_NAME": "STARLINK-1149",
    "NORAD_CAT_ID": "44149",
    "TLE_LINE1": "1 44149U 19074A   26040.53336242  .00001234  00000-0  12345-3 0  9999",
    "TLE_LINE2": "2 44149  53.3072 273.5275 0002743  15.3679  68.1800 15.02569827123456"
  },
  {
    "OBJECT_NAME": "STARLINK-1150",
    "NORAD_CAT_ID": "44150",
    "TLE_LINE1": "1 44150U 19074A   26040.51770589  .00001234  00000-0  12345-3 0  9999",
    "TLE_LINE2": "2 44150  53.0929   7.0520 0001929 227.6891 258.5206 15.08253566123456"
  },
  {
    "OBJECT_NAME": "STARLINK-1151",
    "NORAD_CAT_ID": "44151",
    "TLE_LINE1": "1 44151U 19074A   26040.50992605  .00001234  00000-0  12345-3 0  9999",
    "TLE_LINE2": "2 44151  52.6956 328.4069 0002829 216.8505  20.9470 15.07891764123456"
  },
  {
    "OBJECT_NAME": "STARLINK-1152",
    "NORAD_CAT_ID": "44152",
    "TLE_LINE1": "1 44152U 19074A   26040.41097361  .00001234  00000-0  12345-3 0  9999",
    "TLE_LINE2": "2 44152  52.8041 284.0403 0001916 110.0552 174.6613 15.10220633123456"
  },
  {
    "OBJECT_NAME": "STARLINK-1153",
    "NORAD_CAT_ID": "44153",
    "TLE_LINE1": "1 44153U 19074A   26040.46312561  .00001234  00000-0  12345-3 0  9999",
    "TLE_LINE2": "2 44153  53.2126 129.4520 0001657 237.6219 258.0252 15.01191377123456"
  },
  {
    "OBJECT_NAME": "STARLINK-1154",
    "NORAD_CAT_ID": "44154",
    "TLE_LINE1": "1 44154U 19074A   26040.52457608  .00001234  00000-0  12345-3 0  9999",
    "TLE_LINE2": "2 44154  53.0467 278.7035 0002923 154.5085  87.1773 15.03649930123456"
  },
  {
    "OBJECT_NAME": "STARLINK-1155",
    "NORAD_CAT_ID": "44155",
    "TLE_LINE1": "1 44155U 19074A   26040.46119959  .00001234  00000-0  12345-3 0  9999",
    "TLE_LINE2": "2 44155  53.3013 298.5055 0001651   5.2634 271.3028 15.03903772123456"
  }
]
